STARLINK-31949          
1 59891U 24100G   26068.20680872 -.00005542  00000+0 -19194-3 0  9998
2 59891  42.9998 128.0653 0001478 116.9776 243.1227 15.27593382100981
FLOCK 4G-24             
1 62637U 25009AE  26068.72509072  .00010513  00000+0  38996-3 0  9991
2 62637  97.4061 151.5140 0001802 280.2808  79.8228 15.27784978 63732
